IRIDIUM 26              
1 24903U 97043A   25192.20711464  .00000237  00000+0  72952-4 0  9995
2 24903  86.3954 100.5337 0002258  79.6856 280.4596 14.37159846460666
IRIDIUM 22              
1 24907U 97043E   25192.50521715  .00000227  00000+0  71439-4 0  9998
2 24907  86.3961 103.9693 0002135  83.9015 276.2425 14.35970803460250
DUMMY MASS 1            
1 24925U 97048A   25192.30670466  .00000273  00000+0  27286-4 0  9991
2 24925  86.3365 124.1809 0008872  68.6667 291.5504 14.87001407508959
DUMMY MASS 2            
1 24926U 97048B   25192.54209282  .00000275  00000+0  27703-4 0  9998
2 24926  86.3366 125.6837 0009796  76.3683 283.8632 14.86753500508760
IRIDIUM 29              
1 24944U 97051A   25192.31052709  .00000255  00000+0  80109-4 0  9994
2 24944  86.3983 133.7835 0002182  90.1129 270.0318 14.36483111456959
IRIDIUM 33              
1 24946U 97051C   25192.31882359  .00000207  00000+0  66083-4 0  9990
2 24946  86.3899 133.0423 0008314  15.6038 344.5413 14.34904488456212
IRIDIUM 28              
1 24948U 97051E   25192.54738285  .00000225  00000+0  68590-4 0  9990
2 24948  86.3986 131.1868 0002408  73.7991 286.3471 14.37399356457419
IRIDIUM 36              
1 24967U 97056C   25192.15891234  .00000251  00000+0  77116-4 0  9990
2 24967  86.4000 162.9343 0002092  82.9241 277.2195 14.37624191455662
